     2              NAVIGATION DATA                         RINEX VERSION / TYPE
CCRINEXN V1.6.0 UX  CDDIS               22-AUG-16 19:39     PGM / RUN BY / DATE 
IGS BROADCAST EPHEMERIS FILE                                COMMENT             
    0.5588D-08  0.1490D-07 -0.5960D-07 -0.1192D-06          ION ALPHA           
    0.7782D+05  0.3277D+05 -0.6554D+05 -0.2621D+06          ION BETA            
   -0.465661287308D-08-0.115463194561D-13   319488     1911 DELTA-UTC: A0,A1,T,W
    17                                                      LEAP SECONDS        
                                                            END OF HEADER       
 4 16  8 22  1 59 44.0-0.260259490460D-03-0.227373675443D-12 0.000000000000D+00
    0.410000000000D+02-0.310937500000D+02 0.490127558637D-08 0.307642555603D+01
   -0.158883631229D-05 0.844056881033D-02 0.114329159260D-04 0.515367538261D+04
    0.935840000000D+05 0.204890966415D-07 0.419819533340D+00-0.465661287308D-07
    0.983386296844D+00 0.169843750000D+03 0.900568122746D+00-0.754745723903D-08
   -0.196436753808D-09 0.100000000000D+01 0.191100000000D+04 0.000000000000D+00
    0.200000000000D+01 0.630000000000D+02-0.195577740669D-07 0.410000000000D+02
    0.916200000000D+05 0.000000000000D+00 0.000000000000D+00 0.000000000000D+00
 1 16  8 22  2  0  0.0 0.312123447657D-04 0.136424205266D-11 0.000000000000D+00
    0.240000000000D+02-0.526250000000D+02 0.487448875631D-08-0.150174054575D+00
   -0.260584056377D-05 0.581922451966D-02 0.443682074547D-05 0.515363169670D+04
    0.936000000000D+05 0.521540641785D-07 0.249678384198D+01 0.167638063431D-07
    0.965200013186D+00 0.297781250000D+03 0.526667010252D+00-0.848499629130D-08
   -0.107504477993D-09 0.000000000000D+00 0.191100000000D+04 0.000000000000D+00
    0.200000000000D+01 0.000000000000D+00 0.512227416039D-08 0.240000000000D+02
    0.864000000000D+05 0.400000000000D+01 0.000000000000D+00 0.000000000000D+00
 2 16  8 22  2  0  0.0 0.562427099794D-03-0.454747350886D-11 0.000000000000D+00
    0.770000000000D+02-0.388750000000D+02 0.543415490384D-08 0.274776625892D+00
   -0.216439366341D-05 0.158922090195D-01 0.434741377831D-05 0.515361314964D+04
    0.936000000000D+05-0.247731804848D-06 0.244940349492D+01 0.208616256714D-06
    0.943972161921D+00 0.290093750000D+03-0.209196414460D+01-0.892608653658D-08
   -0.103218586456D-09 0.100000000000D+01 0.191100000000D+04 0.000000000000D+00
    0.280000000000D+01 0.000000000000D+00-0.204890966415D-07 0.770000000000D+02
    0.864300000000D+05 0.000000000000D+00 0.000000000000D+00 0.000000000000D+00
 3 16  8 22  2  0  0.0-0.822064466774D-04-0.250111042988D-11 0.000000000000D+00
    0.340000000000D+02-0.272187500000D+02 0.455768984608D-08-0.344209569162D+00
   -0.143796205521D-05 0.126268481836D-03 0.120326876640D-04 0.515364146805D+04
    0.936000000000D+05 0.167638063431D-07-0.274511869465D+01 0.409781932831D-07
    0.959763777419D+00 0.148031250000D+03-0.423476850482D+00-0.796890336538D-08
   -0.102504269714D-09 0.000000000000D+00 0.191100000000D+04 0.000000000000D+00
    0.200000000000D+01 0.000000000000D+00 0.139698386192D-08 0.340000000000D+02
    0.864000000000D+05 0.400000000000D+01 0.000000000000D+00 0.000000000000D+00
 4 16  8 22  2  0  0.0-0.260261353105D-03-0.341060513165D-12 0.000000000000D+00
    0.800000000000D+02-0.310937500000D+02 0.490127558637D-08 0.307875889281D+01
   -0.158883631229D-05 0.844057148788D-02 0.114329159260D-04 0.515367539024D+04
    0.936000000000D+05 0.204890966415D-07 0.419819419232D+00-0.465661287308D-07
    0.983386296844D+00 0.169843750000D+03 0.900568462143D+00-0.754745723903D-08
   -0.196436753808D-09 0.100000000000D+01 0.191100000000D+04 0.000000000000D+00
    0.400000000000D+01 0.630000000000D+02-0.195577740669D-07 0.800000000000D+02
    0.864000000000D+05 0.400000000000D+01 0.000000000000D+00 0.000000000000D+00
 5 16  8 22  2  0  0.0-0.964542850852D-04 0.261479726760D-11 0.000000000000D+00
    0.100000000000D+03-0.475937500000D+02 0.481805783430D-08 0.276044840401D+01
   -0.237487256527D-05 0.467723980546D-02 0.129658728838D-04 0.515358742142D+04
    0.936000000000D+05-0.335276126862D-07-0.275817974722D+01-0.102445483208D-06
    0.946810735016D+00 0.122187500000D+03 0.486006880206D+00-0.803712049261D-08
   -0.174292974288D-09 0.000000000000D+00 0.191100000000D+04 0.000000000000D+00
    0.200000000000D+01 0.000000000000D+00-0.107102096081D-07 0.100000000000D+03
    0.909600000000D+05 0.400000000000D+01 0.000000000000D+00 0.000000000000D+00
 6 16  8 22  2  0  0.0 0.235831830651D-03 0.511590769747D-11 0.000000000000D+00
    0.340000000000D+02-0.495937500000D+02 0.484484466437D-08 0.151535552933D+00
   -0.279769301414D-05 0.251319608651D-03 0.431761145592D-05 0.515374543190D+04
    0.936000000000D+05-0.279396772385D-07 0.248837079907D+01-0.372529029846D-08
    0.965009175523D+00 0.294156250000D+03-0.139053218465D+01-0.842749389609D-08
   -0.975040614355D-10 0.000000000000D+00 0.191100000000D+04 0.000000000000D+00
    0.200000000000D+01 0.000000000000D+00 0.419095158577D-08 0.340000000000D+02
    0.864000000000D+05 0.400000000000D+01 0.000000000000D+00 0.000000000000D+00
 7 16  8 22  2  0  0.0 0.433115754277D-03-0.272848410532D-11 0.000000000000D+00
    0.750000000000D+02-0.330937500000D+02 0.484698761077D-08-0.845897128862D+00
   -0.182352960110D-05 0.994262599852D-02 0.432692468166D-05 0.515362594223D+04
    0.936000000000D+05 0.186264514923D-06-0.627737385633D+00 0.372529029846D-07
    0.965394936780D+00 0.297750000000D+03-0.264347527378D+01-0.845892377670D-08
   -0.428232123301D-09 0.000000000000D+00 0.191100000000D+04 0.000000000000D+00
    0.200000000000D+01 0.000000000000D+00-0.111758708954D-07 0.750000000000D+02
    0.864000000000D+05 0.400000000000D+01 0.000000000000D+00 0.000000000000D+00
 8 16  8 22  2  0  0.0-0.475002452731D-04-0.147792889038D-11 0.000000000000D+00
    0.350000000000D+02 0.684062500000D+02 0.442625580632D-08 0.277630981825D+01
    0.353343784809D-05 0.168164854404D-02 0.758096575737D-05 0.515373649216D+04
    0.936000000000D+05-0.521540641785D-07 0.143523318994D+01-0.745058059692D-08
    0.963841629381D+00 0.235156250000D+03-0.101939357790D+01-0.809890909892D-08
    0.458947685411D-09 0.100000000000D+01 0.191100000000D+04 0.000000000000D+00
    0.200000000000D+01 0.000000000000D+00 0.512227416039D-08 0.350000000000D+02
    0.870600000000D+05 0.000000000000D+00 0.000000000000D+00 0.000000000000D+00
 9 16  8 22  2  0  0.0 0.191374681890D-03 0.727595761418D-11 0.000000000000D+00
    0.840000000000D+02 0.937812500000D+02 0.486448833975D-08 0.181744187042D+01
    0.479258596897D-05 0.509892823175D-03 0.809133052826D-05 0.515380329704D+04
    0.936000000000D+05 0.745058059692D-08-0.170644445480D+01-0.372529029846D-08
    0.954299411201D+00 0.217156250000D+03 0.215532937035D+01-0.830963184381D-08
    0.363943731146D-09 0.000000000000D+00 0.191100000000D+04 0.000000000000D+00
    0.200000000000D+01 0.000000000000D+00 0.139698386192D-08 0.840000000000D+02
    0.864000000000D+05 0.400000000000D+01 0.000000000000D+00 0.000000000000D+00
10 16  8 22  2  0  0.0-0.868653878570D-04-0.568434188608D-11 0.000000000000D+00
    0.550000000000D+02-0.425937500000D+02 0.447732935588D-08-0.237308731435D+01
   -0.227615237236D-05 0.168590841349D-02 0.119898468256D-04 0.515368505859D+04
    0.936000000000D+05-0.298023223877D-07-0.274905085314D+01-0.372529029846D-07
    0.959988483099D+00 0.150812500000D+03-0.280060731491D+01-0.794068790438D-08
   -0.109647424398D-09 0.100000000000D+01 0.191100000000D+04 0.000000000000D+00
    0.200000000000D+01 0.000000000000D+00 0.232830643654D-08 0.550000000000D+02
    0.864000000000D+05 0.400000000000D+01 0.000000000000D+00 0.000000000000D+00
11 16  8 22  2  0  0.0-0.659900717437D-03-0.113686837722D-11 0.000000000000D+00
    0.530000000000D+02 0.359375000000D+01 0.654420116367D-08-0.735955755763D+00
    0.365078449249D-06 0.167634555837D-01 0.322796404362D-05 0.515366636658D+04
    0.936000000000D+05-0.160187482834D-06 0.211365741009D+01 0.141561031342D-06
    0.897499129813D+00 0.289718750000D+03 0.156051272221D+01-0.954789770826D-08
    0.286440502825D-09 0.000000000000D+00 0.191100000000D+04 0.000000000000D+00
    0.400000000000D+01 0.000000000000D+00-0.121071934700D-07 0.530000000000D+02
    0.864000000000D+05 0.400000000000D+01 0.000000000000D+00 0.000000000000D+00
12 16  8 22  2  0  0.0 0.387897249311D-03 0.454747350886D-12 0.000000000000D+00
    0.240000000000D+02-0.392500000000D+02 0.352407536331D-08-0.144590037603D+01
   -0.203587114811D-05 0.605590955820D-02 0.121351331472D-04 0.515368132591D+04
    0.936000000000D+05 0.199303030968D-06 0.449728432651D+00-0.968575477600D-07
    0.990442661718D+00 0.162968750000D+03 0.785923860083D+00-0.756602944121D-08
   -0.302512600864D-09 0.000000000000D+00 0.191100000000D+04 0.000000000000D+00
    0.200000000000D+01 0.000000000000D+00-0.125728547573D-07 0.240000000000D+02
    0.864000000000D+05 0.400000000000D+01 0.000000000000D+00 0.000000000000D+00
13 16  8 22  2  0  0.0-0.390494242310D-04-0.227373675443D-11 0.000000000000D+00
    0.830000000000D+02 0.815937500000D+02 0.468198058101D-08 0.108702909078D+00
    0.432319939136D-05 0.405779608991D-02 0.766292214394D-05 0.515368542290D+04
    0.936000000000D+05 0.186264514923D-07-0.158434973030D+01 0.260770320892D-07
    0.970571542623D+00 0.236125000000D+03 0.198191700545D+01-0.831998914208D-08
    0.433232338892D-09 0.100000000000D+01 0.191100000000D+04 0.000000000000D+00
    0.200000000000D+01 0.000000000000D+00-0.111758708954D-07 0.830000000000D+02
    0.864300000000D+05 0.000000000000D+00 0.000000000000D+00 0.000000000000D+00
